[{"OBJECT_NAME":"STARLINK-11522 [DTC]","OBJECT_ID":"2025-043K","EPOCH":"2025-08-10T21:47:00.826944","MEAN_MOTION":15.70981026,"ECCENTRICITY":0.0002302,"INCLINATION":42.9997,"RA_OF_ASC_NODE":81.0563,"ARG_OF_PERICENTER":257.1331,"MEAN_ANOMALY":102.928,"EPHEMERIS_TYPE":0,"CLASSIFICATION_TYPE":"U","NORAD_CAT_ID":63141,"ELEMENT_SET_NO":999,"REV_AT_EPOCH":2614,"BSTAR":0.0019785,"MEAN_MOTION_DOT":0.00263182,"MEAN_MOTION_DDOT":0},{"OBJECT_NAME":"STARLINK-11503 [DTC]","OBJECT_ID":"2025-043L","EPOCH":"2025-08-11T00:27:11.552544","MEAN_MOTION":15.7086653,"ECCENTRICITY":0.0002096,"INCLINATION":43,"RA_OF_ASC_NODE":80.1612,"ARG_OF_PERICENTER":242.0508,"MEAN_ANOMALY":118.0147,"EPHEMERIS_TYPE":0,"CLASSIFICATION_TYPE":"U","NORAD_CAT_ID":63142,"ELEMENT_SET_NO":999,"REV_AT_EPOCH":2616,"BSTAR":0.0015755,"MEAN_MOTION_DOT":0.0020706,"MEAN_MOTION_DDOT":0},{"OBJECT_NAME":"STARLINK-11579 [DTC]","OBJECT_ID":"2025-043M","EPOCH":"2025-08-10T07:47:41.777376","MEAN_MOTION":15.71130503,"ECCENTRICITY":0.0004051,"INCLINATION":42.999,"RA_OF_ASC_NODE":84.4202,"ARG_OF_PERICENTER":57.2126,"MEAN_ANOMALY":302.9132,"EPHEMERIS_TYPE":0,"CLASSIFICATION_TYPE":"U","NORAD_CAT_ID":63143,"ELEMENT_SET_NO":999,"REV_AT_EPOCH":2611,"BSTAR":0.001609,"MEAN_MOTION_DOT":0.0021406,"MEAN_MOTION_DDOT":0},{"OBJECT_NAME":"STARLINK-11581 [DTC]","OBJECT_ID":"2025-043N","EPOCH":"2025-08-10T23:41:30.337152","MEAN_MOTION":15.70873494,"ECCENTRICITY":0.0002124,"INCLINATION":43.0003,"RA_OF_ASC_NODE":80.7989,"ARG_OF_PERICENTER":268.6683,"MEAN_ANOMALY":91.3942,"EPHEMERIS_TYPE":0,"CLASSIFICATION_TYPE":"U","NORAD_CAT_ID":63144,"ELEMENT_SET_NO":999,"REV_AT_EPOCH":2633,"BSTAR":0.0015043,"MEAN_MOTION_DOT":0.00197511,"MEAN_MOTION_DDOT":0},{"OBJECT_NAME":"STARLINK-32949","OBJECT_ID":"2025-043P","EPOCH":"2025-08-11T01:03:27.844992","MEAN_MOTION":15.27584654,"ECCENTRICITY":0.0001425,"INCLINATION":43.0008,"RA_OF_ASC_NODE":126.1151,"ARG_OF_PERICENTER":270.9944,"MEAN_ANOMALY":89.0744,"EPHEMERIS_TYPE":0,"CLASSIFICATION_TYPE":"U","NORAD_CAT_ID":63145,"ELEMENT_SET_NO":999,"REV_AT_EPOCH":2571,"BSTAR":0.0010101,"MEAN_MOTION_DOT":0.00027642,"MEAN_MOTION_DDOT":0},{"OBJECT_NAME":"STARLINK-32952","OBJECT_ID":"2025-043Q","EPOCH":"2025-08-11T03:29:40.476768","MEAN_MOTION":15.27526984,"ECCENTRICITY":0.0001614,"INCLINATION":42.9989,"RA_OF_ASC_NODE":132.074,"ARG_OF_PERICENTER":301.8063,"MEAN_ANOMALY":58.2632,"EPHEMERIS_TYPE":0,"CLASSIFICATION_TYPE":"U","NORAD_CAT_ID":63146,"ELEMENT_SET_NO":999,"REV_AT_EPOCH":2571,"BSTAR":0.0010362,"MEAN_MOTION_DOT":0.00028316,"MEAN_MOTION_DDOT":0},{"OBJECT_NAME":"STARLINK-32936","OBJECT_ID":"2025-043R","EPOCH":"2025-08-11T03:33:22.487616","MEAN_MOTION":15.27574382,"ECCENTRICITY":0.0001762,"INCLINATION":43.0026,"RA_OF_ASC_NODE":132.1104,"ARG_OF_PERICENTER":256.2504,"MEAN_ANOMALY":103.8151,"EPHEMERIS_TYPE":0,"CLASSIFICATION_TYPE":"U","NORAD_CAT_ID":63147,"ELEMENT_SET_NO":999,"REV_AT_EPOCH":2508,"BSTAR":0.0012663,"MEAN_MOTION_DOT":0.00034742,"MEAN_MOTION_DDOT":0},{"OBJECT_NAME":"STARLINK-32937","OBJECT_ID":"2025-043S","EPOCH":"2025-08-11T02:00:38.051136","MEAN_MOTION":15.27535527,"ECCENTRICITY":0.0002604,"INCLINATION":43.0013,"RA_OF_ASC_NODE":125.5578,"ARG_OF_PERICENTER":90.261,"MEAN_ANOMALY":269.854,"EPHEMERIS_TYPE":0,"CLASSIFICATION_TYPE":"U","NORAD_CAT_ID":63148,"ELEMENT_SET_NO":999,"REV_AT_EPOCH":2515,"BSTAR":0.00081717,"MEAN_MOTION_DOT":0.00022263,"MEAN_MOTION_DDOT":0},{"OBJECT_NAME":"STARLINK-32939","OBJECT_ID":"2025-043T","EPOCH":"2025-08-11T01:45:48.495744","MEAN_MOTION":15.27544173,"ECCENTRICITY":0.0001752,"INCLINATION":42.9995,"RA_OF_ASC_NODE":125.4819,"ARG_OF_PERICENTER":290.3817,"MEAN_ANOMALY":69.6846,"EPHEMERIS_TYPE":0,"CLASSIFICATION_TYPE":"U","NORAD_CAT_ID":63149,"ELEMENT_SET_NO":999,"REV_AT_EPOCH":2515,"BSTAR":0.00094182,"MEAN_MOTION_DOT":0.00025717,"MEAN_MOTION_DDOT":0},{"OBJECT_NAME":"STARLINK-32919","OBJECT_ID":"2025-043U","EPOCH":"2025-08-11T03:40:19.357248","MEAN_MOTION":15.27560997,"ECCENTRICITY":0.0001416,"INCLINATION":42.9976,"RA_OF_ASC_NODE":125.2144,"ARG_OF_PERICENTER":286.315,"MEAN_ANOMALY":73.7545,"EPHEMERIS_TYPE":0,"CLASSIFICATION_TYPE":"U","NORAD_CAT_ID":63150,"ELEMENT_SET_NO":999,"REV_AT_EPOCH":2516,"BSTAR":0.00083594,"MEAN_MOTION_DOT":0.00022799,"MEAN_MOTION_DDOT":0},{"OBJECT_NAME":"STARLINK-32876","OBJECT_ID":"2025-043V","EPOCH":"2025-08-10T23:43:53.308416","MEAN_MOTION":15.27578785,"ECCENTRICITY":9.55e-5,"INCLINATION":43.0051,"RA_OF_ASC_NODE":125.6965,"ARG_OF_PERICENTER":258.2778,"MEAN_ANOMALY":101.7966,"EPHEMERIS_TYPE":0,"CLASSIFICATION_TYPE":"U","NORAD_CAT_ID":63151,"ELEMENT_SET_NO":999,"REV_AT_EPOCH":2514,"BSTAR":0.0010425,"MEAN_MOTION_DOT":0.00028535,"MEAN_MOTION_DDOT":0},{"OBJECT_NAME":"STARLINK-32915","OBJECT_ID":"2025-043W","EPOCH":"2025-08-11T03:35:11.553792","MEAN_MOTION":15.27577321,"ECCENTRICITY":0.0001858,"INCLINATION":43.0026,"RA_OF_ASC_NODE":132.0701,"ARG_OF_PERICENTER":294.0165,"MEAN_ANOMALY":66.0492,"EPHEMERIS_TYPE":0,"CLASSIFICATION_TYPE":"U","NORAD_CAT_ID":63152,"ELEMENT_SET_NO":999,"REV_AT_EPOCH":2508,"BSTAR":0.0011328,"MEAN_MOTION_DOT":0.00031039,"MEAN_MOTION_DDOT":0},{"OBJECT_NAME":"STARLINK-11602 [DTC]","OBJECT_ID":"2025-048A","EPOCH":"2025-08-11T03:21:56.584800","MEAN_MOTION":15.7090905,"ECCENTRICITY":0.0002355,"INCLINATION":43.0004,"RA_OF_ASC_NODE":149.3406,"ARG_OF_PERICENTER":260.7109,"MEAN_ANOMALY":99.3492,"EPHEMERIS_TYPE":0,"CLASSIFICATION_TYPE":"U","NORAD_CAT_ID":63183,"ELEMENT_SET_NO":999,"REV_AT_EPOCH":2502,"BSTAR":0.0015205,"MEAN_MOTION_DOT":0.00200005,"MEAN_MOTION_DDOT":0},{"OBJECT_NAME":"STARLINK-11617 [DTC]","OBJECT_ID":"2025-048B","EPOCH":"2025-08-11T04:45:51.482592","MEAN_MOTION":15.70878953,"ECCENTRICITY":0.0001509,"INCLINATION":43.0013,"RA_OF_ASC_NODE":148.9162,"ARG_OF_PERICENTER":280.3774,"MEAN_ANOMALY":79.6923,"EPHEMERIS_TYPE":0,"CLASSIFICATION_TYPE":"U","NORAD_CAT_ID":63184,"ELEMENT_SET_NO":999,"REV_AT_EPOCH":2541,"BSTAR":0.0017945,"MEAN_MOTION_DOT":0.00236879,"MEAN_MOTION_DDOT":0},{"OBJECT_NAME":"STARLINK-11618 [DTC]","OBJECT_ID":"2025-048C","EPOCH":"2025-08-11T03:59:58.321536","MEAN_MOTION":15.70982491,"ECCENTRICITY":0.000403,"INCLINATION":43.0009,"RA_OF_ASC_NODE":148.6579,"ARG_OF_PERICENTER":250.7633,"MEAN_ANOMALY":109.2798,"EPHEMERIS_TYPE":0,"CLASSIFICATION_TYPE":"U","NORAD_CAT_ID":63185,"ELEMENT_SET_NO":999,"REV_AT_EPOCH":2540,"BSTAR":0.0023199,"MEAN_MOTION_DOT":0.00310518,"MEAN_MOTION_DDOT":0},{"OBJECT_NAME":"STARLINK-11646 [DTC]","OBJECT_ID":"2025-048D","EPOCH":"2025-08-11T03:44:41.284896","MEAN_MOTION":15.7096283,"ECCENTRICITY":0.0003083,"INCLINATION":43.0018,"RA_OF_ASC_NODE":148.5736,"ARG_OF_PERICENTER":268.5852,"MEAN_ANOMALY":91.4662,"EPHEMERIS_TYPE":0,"CLASSIFICATION_TYPE":"U","NORAD_CAT_ID":63186,"ELEMENT_SET_NO":999,"REV_AT_EPOCH":2541,"BSTAR":0.0022076,"MEAN_MOTION_DOT":0.00294621,"MEAN_MOTION_DDOT":0}]
