STARLINK-11522 [DTC]    
1 63141U 25043K   25222.90764846  .00263182  00000+0  19785-2 0  9999
2 63141  42.9997  81.0563 0002302 257.1331 102.9280 15.70981026 26143
STARLINK-11503 [DTC]    
1 63142U 25043L   25223.01888371  .00207060  00000+0  15755-2 0  9999
2 63142  43.0000  80.1612 0002096 242.0508 118.0147 15.70866530 26169
STARLINK-11579 [DTC]    
1 63143U 25043M   25222.32478909  .00214060  00000+0  16090-2 0  9996
2 63143  42.9990  84.4202 0004051  57.2126 302.9132 15.71130503 26111
STARLINK-11581 [DTC]    
1 63144U 25043N   25222.98715668  .00197511  00000+0  15043-2 0  9993
2 63144  43.0003  80.7989 0002124 268.6683  91.3942 15.70873494 26339
STARLINK-32949          
1 63145U 25043P   25223.04407228  .00027642  00000+0  10101-2 0  9999
2 63145  43.0008 126.1151 0001425 270.9944  89.0744 15.27584654 25714
STARLINK-32952          
1 63146U 25043Q   25223.14560737  .00028316  00000+0  10362-2 0  9994
2 63146  42.9989 132.0740 0001614 301.8063  58.2632 15.27526984 25713
STARLINK-32936          
1 63147U 25043R   25223.14817694  .00034742  00000+0  12663-2 0  9998
2 63147  43.0026 132.1104 0001762 256.2504 103.8151 15.27574382 25718
STARLINK-32937          
1 63148U 25043S   25223.08377374  .00022263  00000+0  81717-3 0  9990
2 63148  43.0013 125.5578 0002604  90.2610 269.8540 15.27535527 25720
STARLINK-32939          
1 63149U 25043T   25223.07347796  .00025717  00000+0  94182-3 0  9992
2 63149  42.9995 125.4819 0001752 290.3817  69.6846 15.27544173 25788
STARLINK-32919          
1 63150U 25043U   25223.15300182  .00022799  00000+0  83594-3 0  9993
2 63150  42.9976 125.2144 0001416 286.3150  73.7545 15.27560997 25841
STARLINK-32876          
1 63151U 25043V   25222.98881144  .00028535  00000+0  10425-2 0  9992
2 63151  43.0051 125.6965 0000955 258.2778 101.7966 15.27578785 25779
STARLINK-32915          
1 63152U 25043W   25223.14943928  .00031039  00000+0  11328-2 0  9997
2 63152  43.0026 132.0701 0001858 294.0165  66.0492 15.27577321 25708
STARLINK-11602 [DTC]    
1 63183U 25048A   25223.14023825  .00200005  00000+0  15205-2 0  9990
2 63183  43.0004 149.3406 0002355 260.7109  99.3492 15.70909050 24975
STARLINK-11617 [DTC]    
1 63184U 25048B   25223.19851253  .00236879  00000+0  17945-2 0  9991
2 63184  43.0013 148.9162 0001509 280.3774  79.6923 15.70878953 24995
STARLINK-11618 [DTC]    
1 63185U 25048C   25223.16664724  .00310518  00000+0  23199-2 0  9995
2 63185  43.0009 148.6579 0004030 250.7633 109.2798 15.70982491 24989
STARLINK-11646 [DTC]    
1 63186U 25048D   25223.15603339  .00294621  00000+0  22076-2 0  9999
2 63186  43.0018 148.5736 0003083 268.5852  91.4662 15.70962830 24988
